{"type": "FeatureCollection", "features": [ {"type": "Feature", "properties": {"norad_id": 37069, "name": "FENGYUN 1C DEB", "group": "fengyun-1c-debris", "lat": 46.21992174376111, "lon": 148.91136721161112, "alt_km": 1137.4227604685175, "timestamp": "2025-12-22T11:33:20.728632+00:00", "meta": {"OBJECT_NAME": "FENGYUN 1C DEB", "OBJECT_ID": "1999-025EFD", "EPOCH": "2025-12-21T04:20:13.765632", "MEAN_MOTION": 13.38005069, "ECCENTRICITY": 0.04234335, "INCLINATION": 95.8488, "RA_OF_ASC_NODE": 322.0189, "ARG_OF_PERICENTER": 233.7857, "MEAN_ANOMALY": 122.3437, "EPHEMERIS_TYPE": 0, "CLASSIFICATION_TYPE": "U", "NORAD_CAT_ID": 37069, "ELEMENT_SET_NO": 999, "REV_AT_EPOCH": 87821, "BSTAR": 0.00093197507, "MEAN_MOTION_DOT": 8.07e-06, "MEAN_MOTION_DDOT": 0}, "tle": {"line1": "1 37069U 99025EFD 25355.18071488  .00000807  00000+0  93198-3 0  9994", "line2": "2 37069  95.8488 322.0189 0423433 233.7857 122.3437 13.38005069878211"}}, "geometry": {"type": "Point", "coordinates": [148.91136721161112, 46.21992174376111]}}, {"type": "Feature", "properties": {"norad_id": 37077, "name": "FENGYUN 1C DEB", "group": "fengyun-1c-debris", "lat": 77.79094281441111, "lon": 24.834475397394968, "alt_km": 800.6697149441579, "timestamp": "2025-12-22T11:33:20.728642+00:00", "meta": {"OBJECT_NAME": "FENGYUN 1C DEB", "OBJECT_ID": "1999-025EFM", "EPOCH": "2025-12-20T22:31:12.417024", "MEAN_MOTION": 14.41212423, "ECCENTRICITY": 0.009539, "INCLINATION": 99.0344, "RA_OF_ASC_NODE": 70.5383, "ARG_OF_PERICENTER": 304.1526, "MEAN_ANOMALY": 55.0643, "EPHEMERIS_TYPE": 0, "CLASSIFICATION_TYPE": "U", "NORAD_CAT_ID": 37077, "ELEMENT_SET_NO": 999, "REV_AT_EPOCH": 85073, "BSTAR": 0.00025476, "MEAN_MOTION_DOT": 8.15e-06, "MEAN_MOTION_DDOT": 0}, "tle": {"line1": "1 37077U 99025EFM 25354.93833816  .00000815  00000+0  25476-3 0  9999", "line2": "2 37077  99.0344  70.5383 0095390 304.1526  55.0643 14.41212423850738"}}, "geometry": {"type": "Point", "coordinates": [24.834475397394968, 77.79094281441111]}}, {"type": "Feature", "properties": {"norad_id": 37079, "name": "FENGYUN 1C DEB", "group": "fengyun-1c-debris", "lat": -48.31025674595526, "lon": -57.982290978714374, "alt_km": 702.8692704417281, "timestamp": "2025-12-22T11:33:20.728653+00:00", "meta": {"OBJECT_NAME": "FENGYUN 1C DEB", "OBJECT_ID": "1999-025EFP", "EPOCH": "2025-12-18T02:53:46.135104", "MEAN_MOTION": 14.6004098, "ECCENTRICITY": 0.00113024, "INCLINATION": 98.8569, "RA_OF_ASC_NODE": 127.4448, "ARG_OF_PERICENTER": 127.1954, "MEAN_ANOMALY": 233.0277, "EPHEMERIS_TYPE": 0, "CLASSIFICATION_TYPE": "U", "NORAD_CAT_ID": 37079, "ELEMENT_SET_NO": 999, "REV_AT_EPOCH": 64694, "BSTAR": 0.0027811281, "MEAN_MOTION_DOT": 0.00013341, "MEAN_MOTION_DDOT": 0}, "tle": {"line1": "1 37079U 99025EFP 25352.12067286  .00013341  00000+0  27811-2 0  9992", "line2": "2 37079  98.8569 127.4448 0011302 127.1954 233.0277 14.60040980646944"}}, "geometry": {"type": "Point", "coordinates": [-57.982290978714374, -48.31025674595526]}}, {"type": "Feature", "properties": {"norad_id": 37081, "name": "FENGYUN 1C DEB", "group": "fengyun-1c-debris", "lat": -63.08980894438337, "lon": -49.04516901889959, "alt_km": 800.6803965079216, "timestamp": "2025-12-22T11:33:20.728662+00:00", "meta": {"OBJECT_NAME": "FENGYUN 1C DEB", "OBJECT_ID": "1999-025EFR", "EPOCH": "2025-12-21T15:41:59.866368", "MEAN_MOTION": 14.13992417, "ECCENTRICITY": 0.0266704, "INCLINATION": 98.7038, "RA_OF_ASC_NODE": 147.7147, "ARG_OF_PERICENTER": 322.5085, "MEAN_ANOMALY": 35.7745, "EPHEMERIS_TYPE": 0, "CLASSIFICATION_TYPE": "U", "NORAD_CAT_ID": 37081, "ELEMENT_SET_NO": 999, "REV_AT_EPOCH": 58700, "BSTAR": 0.0028473, "MEAN_MOTION_DOT": 7.567e-05, "MEAN_MOTION_DDOT": 0}, "tle": {"line1": "1 37081U 99025EFR 25355.65416512  .00007567  00000+0  28473-2 0  9994", "line2": "2 37081  98.7038 147.7147 0266704 322.5085  35.7745 14.13992417587009"}}, "geometry": {"type": "Point", "coordinates": [-49.04516901889959, -63.08980894438337]}}, {"type": "Feature", "properties": {"norad_id": 37400, "name": "FENGYUN 1C DEB", "group": "fengyun-1c-debris", "lat": 63.31470790930887, "lon": 174.96844274563853, "alt_km": 804.8869316583614, "timestamp": "2025-12-22T11:33:20.728673+00:00", "meta": {"OBJECT_NAME": "FENGYUN 1C DEB", "OBJECT_ID": "1999-025EFS", "EPOCH": "2025-12-21T07:04:10.924032", "MEAN_MOTION": 13.63653969, "ECCENTRICITY": 0.0401794, "INCLINATION": 98.8374, "RA_OF_ASC_NODE": 191.9168, "ARG_OF_PERICENTER": 114.2365, "MEAN_ANOMALY": 250.1307, "EPHEMERIS_TYPE": 0, "CLASSIFICATION_TYPE": "U", "NORAD_CAT_ID": 37400, "ELEMENT_SET_NO": 999, "REV_AT_EPOCH": 80310, "BSTAR": 0.00033721, "MEAN_MOTION_DOT": 4.26e-06, "MEAN_MOTION_DDOT": 0}, "tle": {"line1": "1 37400U 99025EFS 25355.29457088  .00000426  00000+0  33721-3 0  9992", "line2": "2 37400  98.8374 191.9168 0401794 114.2365 250.1307 13.63653969803108"}}, "geometry": {"type": "Point", "coordinates": [174.96844274563853, 63.31470790930887]}}, {"type": "Feature", "properties": {"norad_id": 37404, "name": "FENGYUN 1C DEB", "group": "fengyun-1c-debris", "lat": 55.22014067218832, "lon": -13.293987012180237, "alt_km": 773.7769679394469, "timestamp": "2025-12-22T11:33:20.728683+00:00", "meta": {"OBJECT_NAME": "FENGYUN 1C DEB", "OBJECT_ID": "1999-025EFW", "EPOCH": "2025-12-19T20:07:18.270624", "MEAN_MOTION": 14.31663864, "ECCENTRICITY": 0.00447811, "INCLINATION": 98.4519, "RA_OF_ASC_NODE": 356.4953, "ARG_OF_PERICENTER": 141.4777, "MEAN_ANOMALY": 340.5806, "EPHEMERIS_TYPE": 0, "CLASSIFICATION_TYPE": "U", "NORAD_CAT_ID": 37404, "ELEMENT_SET_NO": 999, "REV_AT_EPOCH": 82842, "BSTAR": 0.00044732282, "MEAN_MOTION_DOT": 1.163e-05, "MEAN_MOTION_DDOT": 0}, "tle": {"line1": "1 37404U 99025EFW 25353.83840591  .00001163  00000+0  44732-3 0  9992", "line2": "2 37404  98.4519 356.4953 0044781 141.4777 340.5806 14.31663864828428"}}, "geometry": {"type": "Point", "coordinates": [-13.293987012180237, 55.22014067218832]}}, {"type": "Feature", "properties": {"norad_id": 37406, "name": "FENGYUN 1C DEB", "group": "fengyun-1c-debris", "lat": 78.37800504740117, "lon": 94.1748296416492, "alt_km": 954.8782708156132, "timestamp": "2025-12-22T11:33:20.728694+00:00", "meta": {"OBJECT_NAME": "FENGYUN 1C DEB", "OBJECT_ID": "1999-025EFY", "EPOCH": "2025-12-18T11:54:12.055968", "MEAN_MOTION": 14.04312193, "ECCENTRICITY": 0.01490772, "INCLINATION": 98.4429, "RA_OF_ASC_NODE": 224.2353, "ARG_OF_PERICENTER": 250.1926, "MEAN_ANOMALY": 231.2149, "EPHEMERIS_TYPE": 0, "CLASSIFICATION_TYPE": "U", "NORAD_CAT_ID": 37406, "ELEMENT_SET_NO": 999, "REV_AT_EPOCH": 63313, "BSTAR": 0.000752683, "MEAN_MOTION_DOT": 1.28e-05, "MEAN_MOTION_DDOT": 0}, "tle": {"line1": "1 37406U 99025EFY 25352.49597287  .00001280  00000+0  75268-3 0  9994", "line2": "2 37406  98.4429 224.2353 0149077 250.1926 231.2149 14.04312193633138"}}, "geometry": {"type": "Point", "coordinates": [94.1748296416492, 78.37800504740117]}}, {"type": "Feature", "properties": {"norad_id": 37415, "name": "FENGYUN 1C DEB", "group": "fengyun-1c-debris", "lat": 59.46299751634992, "lon": 87.85825767908493, "alt_km": 1077.709900201853, "timestamp": "2025-12-22T11:33:20.728703+00:00", "meta": {"OBJECT_NAME": "FENGYUN 1C DEB", "OBJECT_ID": "1999-025EGH", "EPOCH": "2025-12-22T00:35:27.249216", "MEAN_MOTION": 13.52096685, "ECCENTRICITY": 0.0285305, "INCLINATION": 98.9816, "RA_OF_ASC_NODE": 102.9947, "ARG_OF_PERICENTER": 158.6618, "MEAN_ANOMALY": 202.6701, "EPHEMERIS_TYPE": 0, "CLASSIFICATION_TYPE": "U", "NORAD_CAT_ID": 37415, "ELEMENT_SET_NO": 999, "REV_AT_EPOCH": 62447, "BSTAR": 0.0003136, "MEAN_MOTION_DOT": 2.29e-06, "MEAN_MOTION_DDOT": 0}, "tle": {"line1": "1 37415U 99025EGH 25356.02462094  .00000229  00000+0  31360-3 0  9991", "line2": "2 37415  98.9816 102.9947 0285305 158.6618 202.6701 13.52096685624479"}}, "geometry": {"type": "Point", "coordinates": [87.85825767908493, 59.46299751634992]}}, {"type": "Feature", "properties": {"norad_id": 37417, "name": "FENGYUN 1C DEB", "group": "fengyun-1c-debris", "lat": -16.182993864683947, "lon": -8.40518302469329, "alt_km": 892.4603414705953, "timestamp": "2025-12-22T11:33:20.728714+00:00", "meta": {"OBJECT_NAME": "FENGYUN 1C DEB", "OBJECT_ID": "1999-025EGK", "EPOCH": "2025-12-14T05:42:40.741056", "MEAN_MOTION": 14.07392005, "ECCENTRICITY": 0.00781873, "INCLINATION": 98.797, "RA_OF_ASC_NODE": 340.9941, "ARG_OF_PERICENTER": 256.4358, "MEAN_ANOMALY": 102.8093, "EPHEMERIS_TYPE": 0, "CLASSIFICATION_TYPE": "U", "NORAD_CAT_ID": 37417, "ELEMENT_SET_NO": 999, "REV_AT_EPOCH": 68371, "BSTAR": 0.00034066216, "MEAN_MOTION_DOT": 5.45e-06, "MEAN_MOTION_DDOT": 0}, "tle": {"line1": "1 37417U 99025EGK 25348.23797154  .00000545  00000+0  34066-3 0  9992", "line2": "2 37417  98.7970 340.9941 0078187 256.4358 102.8093 14.07392005683717"}}, "geometry": {"type": "Point", "coordinates": [-8.40518302469329, -16.182993864683947]}}, {"type": "Feature", "properties": {"norad_id": 37418, "name": "FENGYUN 1C DEB", "group": "fengyun-1c-debris", "lat": -71.96443169300072, "lon": -86.86404295754348, "alt_km": 863.5364877063712, "timestamp": "2025-12-22T11:33:20.728723+00:00", "meta": {"OBJECT_NAME": "FENGYUN 1C DEB", "OBJECT_ID": "1999-025EGL", "EPOCH": "2025-12-19T23:37:42.566880", "MEAN_MOTION": 11.95144251, "ECCENTRICITY": 0.1076128, "INCLINATION": 98.6118, "RA_OF_ASC_NODE": 243.7385, "ARG_OF_PERICENTER": 305.6539, "MEAN_ANOMALY": 44.8873, "EPHEMERIS_TYPE": 0, "CLASSIFICATION_TYPE": "U", "NORAD_CAT_ID": 37418, "ELEMENT_SET_NO": 999, "REV_AT_EPOCH": 49571, "BSTAR": -0.00092645, "MEAN_MOTION_DOT": -4.14e-06, "MEAN_MOTION_DDOT": 0}, "tle": {"line1": "1 37418U 99025EGL 25353.98452045 -.00000414  00000+0 -92645-3 0  9992", "line2": "2 37418  98.6118 243.7385 1076128 305.6539  44.8873 11.95144251495719"}}, "geometry": {"type": "Point", "coordinates": [-86.86404295754348, -71.96443169300072]}}]}